 Automated mail xmit by MAIL_REQUEST, PID=   3657 Sat Apr 12 04:59:57 2014
++++++++++++++++++++++++++++++++ (part 1 of 1)  
++++++++++++++++++++++++++++++++ +++++++++++++++++++++++++++++++

*******************************************************************************
 Revised: Dec 30, 2013             134340 Pluto                             999
 
 Fit to all available observations (PLU043/DE431)

 ICRF/J2000.0 helio. ecliptic osc. elements (AU, DAYS, DEG, period=Julian yrs):

 EPOCH= 2456656.5 ! 2013-Dec-30.00 (CT)
  EC= 2.479750960904014E-01 QR= 2.950229731448114E+01 IN= 1.733434183305855E+01
  OM= 1.101908708982876E+02 W = 1.121892886119843E+02 Tp=  2447571.800166774075
  A = 3.923047915182824E+01 AD= 4.895866098917534E+01 PR= 8.974987331741650E+04

 PHYSICAL DATA (updated 2013-Nov-19, Mc= Charon mass, radius is IAU 2009):
  Mass Pluto (10^22 kg) = 1.307+-0.018    Density Pluto:
  GM (planet) km^3/s^2  = 872.4             (R = 1195 km)       = 1.83 g/cm^3
  Mass ratio (Mc/Mp)    = 0.117           Radius of Pluto, Rp   = 1195 km
  Surface gravity       = 61.1 cm/s^2     Geometric albedo      = 0.3 
  Sidereal orbit period = 249.58932 yr    Mean orbit velocity   = 4.656 km/s
  Escape velocity (km/s)= 1.21
*******************************************************************************
 
 
*******************************************************************************
Ephemeris / MAIL_REQUEST Sat Apr 12 04:59:57 2014 Pasadena, USA  / Horizons    
*******************************************************************************
Target body name: Pluto (999)                     {source: PLU043}
Center body name: Sun (10)                        {source: DE-0431LE-0431}
Center-site name: BODY CENTER
*******************************************************************************
Start time      : A.D. 2013-Jan-01 10:00:00.0000 CT 
Stop  time      : A.D. 2014-Jan-01 10:00:00.0000 CT 
Step-size       : 2 steps
*******************************************************************************
Center geodetic : 0.00000000,0.00000000,0.0000000 {E-lon(deg),Lat(deg),Alt(km)} Center cylindric: 0.00000000,0.00000000,0.0000000 {E-lon(deg),Dxy(km),Dz(km)}
Center radii    : 696000.0 x 696000.0 x 696000.0 k{Equator, meridian, pole}    
Output units    : AU-D                                                         
Output format   : 03
Reference frame : ICRF/J2000.0                                                 
Output type     : GEOMETRIC cartesian states
Coordinate systm: Ecliptic and Mean Equinox of Reference Epoch                 
*******************************************************************************
JDCT ,   , X, Y, Z, VX, VY, VZ, LT, RG, RR,
*******************************************************************************
$$SOE
2456293.916666667, A.D. 2013-Jan-01 10:00:00.0000,  5.110363812298293E+00, -3.189556129134836E+01,  1.935469045371270E+00,  3.144239376285210E-03, -1.325376325405255E-04, -8.895966111777773E-04,  1.868974766550616E-01,  3.236029494318304E+01,  5.739682730545934E-04, 2456476.416666667, A.D. 2013-Jul-02 22:00:00.0000,  5.685045781347213E+00, -3.191464317530878E+01,  1.770998445696247E+00,  3.150333588443932E-03, -8.186473610744448E-05, -9.153334666382857E-04,  1.875043734437191E-01,  3.246537586472633E+01,  5.822024192905084E-04, 2456658.916666667, A.D. 2014-Jan-01 10:00:00.0000,  6.258072209684038E+00, -3.192489134663797E+01,  1.606007354510270E+00,  3.133830477149298E-03, -2.579275664221780E-05, -8.928929532135548E-04,  1.881207355080364E-01,  3.257209564794689E+01,  5.833574826736179E-04, $$EOE
*******************************************************************************
Coordinate system description:

  Ecliptic and Mean Equinox of Reference Epoch

    Reference epoch: J2000.0
    xy-plane: plane of the Earth's orbit at the reference epoch
    x-axis  : out along ascending node of instantaneous plane of the Earth's
              orbit and the Earth's mean equator at the reference epoch
    z-axis  : perpendicular to the xy-plane in the directional (+ or -) sense
              of Earth's north pole at the reference epoch.

Symbol meaning [1 au=149597870.700 km, 1 day=86400.0 s]:

    JDCT     Epoch Julian Date, Coordinate Time
      X      x-component of position vector (AU)                               
      Y      y-component of position vector (AU)                               
      Z      z-component of position vector (AU)                               
      VX     x-component of velocity vector (AU/day)                           
      VY     y-component of velocity vector (AU/day)                           
      VZ     z-component of velocity vector (AU/day)                           
      LT     One-way down-leg Newtonian light-time (day)                       
      RG     Range; distance from coordinate center (AU)                       
      RR     Range-rate; radial velocity wrt coord. center (AU/day)            

Geometric states/elements have no aberration corrections applied.

 Computations by ...
     Solar System Dynamics Group, Horizons On-Line Ephemeris System
     4800 Oak Grove Drive, Jet Propulsion Laboratory
     Pasadena, CA  91109   USA
     Information: http://ssd.jpl.nasa.gov/
     Connect    : telnet://ssd.jpl.nasa.gov:6775  (via browser)
                  telnet ssd.jpl.nasa.gov 6775    (via command-line)
     Author     : Jon.Giorgini@jpl.nasa.gov
*******************************************************************************
